*******************************************************************************
 Revised: June 17, 2016                Uranus                               799
 
 PHYSICAL DATA (updated 2018-Aug-15):
  Mass x10^24 (kg)      = 86.813          Density (g/cm^3)       =  1.271
  Equat. radius (1 bar) = 25559+-4 km     Polar radius (km)      = 24973+-20
  Vol. Mean Radius (km) = 25362+-12       Flattening             =  0.02293
  Geometric Albedo      = 0.51
  Sid. rot. period (III)= 17.24+-0.01 h   Sid. rot. rate (rad/s) = -0.000101237
  Mean solar day, h     =~17.24           Rocky core mass (Mc/M) =  0.0012        
  GM (km^3/s^2)         = 5793951.322     GM 1-sigma (km^3/s^2)  = +-4.3 
  Equ. grav, ge (m/s^2) =  8.87           Pol. grav, gp (m/s^2)  =   9.19+-0.02
  Visual magnitude V(1,0)= -7.11
  Vis. mag. (opposition)=  +5.52          Obliquity to orbit     = 97.77 deg
  Sidereal orbit period = 84.0120465 y    Sidereal orbit period  = 30685.4 d
  Mean daily motion     = 0.01176904 dg/d Mean orbit velocity    =  6.8 km/s
  Atmos. temp. (1 bar)  =  76+-2 K        Escape speed, km/s     =  21.3           
  Aroche(ice)/Rp        =  2.20           Hill's sphere rad., Rp = 2700
                                 Perihelion   Aphelion    Mean
  Solar Constant (W/m^2)         4.09         3.39        3.71
  Maximum Planetary IR (W/m^2)   0.72         0.55        0.63
  Minimum Planetary IR (W/m^2)   0.72         0.55        0.63
*******************************************************************************
 

 

*******************************************************************************
Ephemeris / WWW_USER Sat Mar  9 19:57:01 2019 Pasadena, USA      / Horizons    
*******************************************************************************
Target body name: Uranus (799)                    {source: ura111}
Center body name: Solar System Barycenter (0)     {source: DE431mx}
Center-site name: BODY CENTER
*******************************************************************************
Start time      : A.D. 1970-Jan-01 00:00:00.0000 TDB
Stop  time      : A.D. 2100-Jan-01 00:00:00.0000 TDB
Step-size       : 1 calendar years
*******************************************************************************
Center geodetic : 0.00000000,0.00000000,0.0000000 {E-lon(deg),Lat(deg),Alt(km)}
Center cylindric: 0.00000000,0.00000000,0.0000000 {E-lon(deg),Dxy(km),Dz(km)}
Center radii    : (undefined)                                                  
Output units    : KM-S                                                         
Output type     : GEOMETRIC cartesian states
Output format   : 2 (position and velocity)
Reference frame : ICRF/J2000.0                                                 
Coordinate systm: Earth Mean Equator and Equinox of Reference Epoch            
*******************************************************************************
            JDTDB,            Calendar Date (TDB),                      X,                      Y,                      Z,                     VX,                     VY,                     VZ,
**************************************************************************************************************************************************************************************************
$$SOE
2465424.500000000, A.D. 2038-Jan-01 00:00:00.0000, -1.023942267858076E+09,  2.378977059931012E+09,  1.056393415710153E+09, -6.387662421663949E+00, -2.609593447960796E+00, -1.052833549821658E+00,
2465789.500000000, A.D. 2039-Jan-01 00:00:00.0000, -1.222083932130814E+09,  2.289559653857248E+09,  1.020031875357227E+09, -6.171677490837614E+00, -3.058920610336321E+00, -1.252795213400770E+00,
2466154.500000000, A.D. 2040-Jan-01 00:00:00.0000, -1.412784492427866E+09,  2.186194837886995E+09,  9.774566992394397E+08, -5.915974150592972E+00, -3.493530816831297E+00, -1.446796658380479E+00,
2466520.500000000, A.D. 2041-Jan-01 00:00:00.0000, -1.595293729604481E+09,  2.069060647761021E+09,  9.287352406284263E+08, -5.620878444946630E+00, -3.911363784256568E+00, -1.633655534845214E+00,
2466885.500000000, A.D. 2042-Jan-01 00:00:00.0000, -1.767411910430420E+09,  1.939413833945392E+09,  8.743868337943369E+08, -5.288923487557397E+00, -4.306960558586458E+00, -1.811560768605112E+00,
2467250.500000000, A.D. 2043-Jan-01 00:00:00.0000, -1.928498845710303E+09,  1.797664493091161E+09,  8.145819754093291E+08, -4.921273822238447E+00, -4.678499748738290E+00, -1.979397783120407E+00,
2467615.500000000, A.D. 2044-Jan-01 00:00:00.0000, -2.077463469027260E+09,  1.644618489572986E+09,  7.496581550194966E+08, -4.520153969710641E+00, -5.023032161075164E+00, -2.135846175427369E+00,
2467981.500000000, A.D. 2045-Jan-01 00:00:00.0000, -2.213639636557435E+09,  1.480710595214121E+09,  6.797963646213142E+08, -4.086911241616371E+00, -5.338443148346020E+00, -2.280471451015293E+00,
2468346.500000000, A.D. 2046-Jan-01 00:00:00.0000, -2.335344714053242E+09,  1.307819829894926E+09,  6.057957786798509E+08, -3.626545345776191E+00, -5.620653862222948E+00, -2.410535085165114E+00,
2468711.500000000, A.D. 2047-Jan-01 00:00:00.0000, -2.442125806362304E+09,  1.126571834569513E+09,  5.279240265596604E+08, -3.141147632774570E+00, -5.868088547436975E+00, -2.525648525674753E+00,
2469076.500000000, A.D. 2048-Jan-01 00:00:00.0000, -2.533241412129251E+09,  9.380968288811156E+08,  4.466656466899818E+08, -2.634016527507357E+00, -6.078636655151087E+00, -2.624939384335854E+00,
2469442.500000000, A.D. 2049-Jan-01 00:00:00.0000, -2.608241496822489E+09,  7.430462959738064E+08,  3.622996393528283E+08, -2.106833428735488E+00, -6.251049893411375E+00, -2.707692782787670E+00,
2469807.500000000, A.D. 2050-Jan-01 00:00:00.0000, -2.666198297994492E+09,  5.437314380578092E+08,  2.758250858344813E+08, -1.566732469720741E+00, -6.382796468095894E+00, -2.772903224888620E+00,
2470172.500000000, A.D. 2051-Jan-01 00:00:00.0000, -2.706942676283229E+09,  3.409088415334056E+08,  1.875709744150548E+08, -1.015966272577455E+00, -6.473367766899435E+00, -2.820423007689300E+00,
2470537.500000000, A.D. 2052-Jan-01 00:00:00.0000, -2.730202470903560E+09,  1.358867590153463E+08,  9.810647741520575E+07, -4.585198482818453E-01, -6.522155598192453E+00, -2.849871572294536E+00,
2470903.500000000, A.D. 2053-Jan-01 00:00:00.0000, -2.735826944938137E+09, -7.057682757366610E+07,  7.761496463355098E+06,  1.027635821211939E-01, -6.528884515798929E+00, -2.860864700130318E+00,
2471268.500000000, A.D. 2054-Jan-01 00:00:00.0000, -2.723777634701716E+09, -2.760250882774474E+08, -8.238848573490261E+07,  6.605296637864025E-01, -6.493501605529369E+00, -2.853460214938961E+00,
2471633.500000000, A.D. 2055-Jan-01 00:00:00.0000, -2.694217802903826E+09, -4.797025508198059E+08, -1.720102931404775E+08,  1.212439157237799E+00, -6.416571082390541E+00, -2.827662913006074E+00,
2471998.500000000, A.D. 2056-Jan-01 00:00:00.0000, -2.647396739113562E+09, -6.803091892348740E+08, -2.605310607012101E+08,  1.754552446091344E+00, -6.298907176222717E+00, -2.783711698541452E+00,
2472364.500000000, A.D. 2057-Jan-01 00:00:00.0000, -2.583487372518206E+09, -8.771072371813546E+08, -3.476252353677972E+08,  2.284446864439924E+00, -6.141192693326159E+00, -2.721908414963298E+00,
2472729.500000000, A.D. 2058-Jan-01 00:00:00.0000, -2.503326954476234E+09, -1.067793266547229E+09, -4.322721356176553E+08,  2.795862668277948E+00, -5.945798349742714E+00, -2.643528904674806E+00,
2473094.500000000, A.D. 2059-Jan-01 00:00:00.0000, -2.407362097464967E+09, -1.251739608007730E+09, -5.141905569565874E+08,  3.286566226740436E+00, -5.714178018459190E+00, -2.548996586303956E+00,
2473459.500000000, A.D. 2060-Jan-01 00:00:00.0000, -2.296295511325886E+09, -1.427836728133037E+09, -5.928846325454196E+08,  3.753304904668708E+00, -5.448404982027889E+00, -2.439262121918988E+00,
2473825.500000000, A.D. 2061-Jan-01 00:00:00.0000, -2.170563981840512E+09, -1.595490217509563E+09, -6.680878867258524E+08,  4.194326988479650E+00, -5.149928090936028E+00, -2.315043538821679E+00,
2474190.500000000, A.D. 2062-Jan-01 00:00:00.0000, -2.031743050443001E+09, -1.752819009854232E+09, -7.389542037422732E+08,  4.604671391600093E+00, -4.823037596792703E+00, -2.177638957019538E+00,
2474555.500000000, A.D. 2063-Jan-01 00:00:00.0000, -1.880471949781704E+09, -1.899412852595687E+09, -8.052949007446097E+08,  4.983342238061381E+00, -4.469550458921114E+00, -2.028129148756734E+00,
2474920.500000000, A.D. 2064-Jan-01 00:00:00.0000, -1.717780611664886E+09, -2.034476270818937E+09, -8.667470363176881E+08,  5.328527977960714E+00, -4.092256653466713E+00, -1.867687136320871E+00,
2475286.500000000, A.D. 2065-Jan-01 00:00:00.0000, -1.544267100549040E+09, -2.157621241866830E+09, -9.231321970571092E+08,  5.639471127098851E+00, -3.692921783177989E+00, -1.696918597697800E+00,
2475651.500000000, A.D. 2066-Jan-01 00:00:00.0000, -1.362011794769536E+09, -2.267557461930758E+09, -9.738558536157773E+08,  5.913083222689318E+00, -3.276527147977935E+00, -1.518435220459173E+00,
2476016.500000000, A.D. 2067-Jan-01 00:00:00.0000, -1.171718591925202E+09, -2.364117029678269E+09, -1.018834518002569E+09,  6.149337245240179E+00, -2.845125282299531E+00, -1.332881055123791E+00,
2476381.500000000, A.D. 2068-Jan-01 00:00:00.0000, -9.745792263944958E+08, -2.446874851140470E+09, -1.057865218111523E+09,  6.347358864557248E+00, -2.401748591326362E+00, -1.141497853865659E+00,
2476747.500000000, A.D. 2069-Jan-01 00:00:00.0000, -7.712428886804447E+08, -2.515667809297394E+09, -1.090867395678926E+09,  6.506859661145923E+00, -1.947932228887438E+00, -9.452335099615022E-01,
2477112.500000000, A.D. 2070-Jan-01 00:00:00.0000, -5.640442197262144E+08, -2.569877494738035E+09, -1.117537207156422E+09,  6.627289948711233E+00, -1.489179364344041E+00, -7.459230954278068E-01,
2477477.500000000, A.D. 2071-Jan-01 00:00:00.0000, -3.536549413197950E+08, -2.609556520102563E+09, -1.137888176536456E+09,  6.709074277565425E+00, -1.026890186183047E+00, -5.444225849383838E-01,
